STARLINK-37183          
1 68349U 26059AE  26092.82171984  .00242105  00000+0  11873-2 0  9996
2 68349  53.1591 241.7029 0002091 232.0129 128.0705 15.81032942  1797
CENTISPACE-1 OBJECT A   
1 68350U 26060A   26090.92174954  .00002073  00000+0  33708-3 0  9999
2 68350  54.9828 350.9279 0013011 316.4493  43.5478 14.74887229  1375
CENTISPACE-1 OBJECT B   
1 68351U 26060B   26092.88688832  .00001693  00000+0  28072-3 0  9997
2 68351  54.9823 342.9086 0013398 322.0026  38.0027 14.74933356  1665
CENTISPACE-1 OBJECT C   
1 68352U 26060C   26092.68223269  .00000055  00000+0  38980-4 0  9996
2 68352  54.9842 343.7306 0012723 328.1654  31.8575 14.75107021  1635
CENTISPACE-1 OBJECT D   
1 68353U 26060D   26090.51361463  .00000086  00000+0  43489-4 0  9990
2 68353  54.9893 352.5746 0013212 325.1986  34.8148 14.75128916  1317
CENTISPACE-1 OBJECT E   
1 68354U 26060E   26092.74924469  .00000054  00000+0  38770-4 0  9991
2 68354  54.9766 343.4508 0013210 326.5301  33.4863 14.75208725  1648
CENTISPACE-1 OBJECT F   
1 68355U 26060F   26091.52938487  .00000056  00000+0  38992-4 0  9990
2 68355  54.9764 348.4206 0013924 323.7943  36.2113 14.75237979  1462
CENTISPACE-1 OBJECT G   
1 68356U 26060G   26092.00314274  .00000051  00000+0  38325-4 0  9992
2 68356  54.9880 346.4927 0014242 325.6905  34.3173 14.75310904  1536
CENTISPACE-1 OBJECT H   
1 68357U 26060H   26090.51191146  .00002097  00000+0  33642-3 0  9996
2 68357  54.9825 352.5691 0014896 321.7973  38.1970 14.75426695  1317
CENTISPACE-1 OBJECT J   
1 68358U 26060J   26090.91843375  .00000091  00000+0  44083-4 0  9993
2 68358  54.9876 350.9118 0014725 324.9275  35.0754 14.75410591  1371
CENTISPACE-1 OBJECT K   
1 68359U 26060K   26091.73090155  .00000049  00000+0  37853-4 0  9995
2 68359  54.9775 347.5897 0015115 326.6312  33.3734 14.75493204  1495
RASSVET-3 1             
1 68360U 26061A   26092.79785496  .00055858 -49433-7  18684-3 0  9994
2 68360  82.2959  97.2868 0025817  37.6456 322.6616 15.89404754  1604
