CCSDS_OMM_VERS = 2.0
CREATION_DATE  = 
ORIGINATOR     = 

OBJECT_NAME    = STARLINK-37183
OBJECT_ID      = 2026-059AE
CENTER_NAME    = EARTH
REF_FRAME      = TEME
TIME_SYSTEM    = UTC
MEAN_ELEMENT_THEORY = SGP/SGP4

EPOCH          = 2026-04-02T19:43:16.594176
MEAN_MOTION    = 15.81032942
ECCENTRICITY   = .0002091
INCLINATION    = 53.1591
RA_OF_ASC_NODE = 241.7029
ARG_OF_PERICENTER = 232.0129
MEAN_ANOMALY   = 128.0705

EPHEMERIS_TYPE = 0
CLASSIFICATION_TYPE = U
NORAD_CAT_ID   = 68349
ELEMENT_SET_NO = 999
REV_AT_EPOCH   = 179
BSTAR          = .11873E-2
MEAN_MOTION_DOT = .242105E-2
MEAN_MOTION_DDOT = 0

CCSDS_OMM_VERS = 2.0
CREATION_DATE  = 
ORIGINATOR     = 

OBJECT_NAME    = CENTISPACE-1 OBJECT A
OBJECT_ID      = 2026-060A
CENTER_NAME    = EARTH
REF_FRAME      = TEME
TIME_SYSTEM    = UTC
MEAN_ELEMENT_THEORY = SGP/SGP4

EPOCH          = 2026-03-31T22:07:19.160256
MEAN_MOTION    = 14.74887229
ECCENTRICITY   = .00130111
INCLINATION    = 54.9828
RA_OF_ASC_NODE = 350.9279
ARG_OF_PERICENTER = 316.4493
MEAN_ANOMALY   = 43.5478

EPHEMERIS_TYPE = 0
CLASSIFICATION_TYPE = U
NORAD_CAT_ID   = 68350
ELEMENT_SET_NO = 999
REV_AT_EPOCH   = 137
BSTAR          = .33707763E-3
MEAN_MOTION_DOT = .2073E-4
MEAN_MOTION_DDOT = 0

CCSDS_OMM_VERS = 2.0
CREATION_DATE  = 
ORIGINATOR     = 

OBJECT_NAME    = CENTISPACE-1 OBJECT B
OBJECT_ID      = 2026-060B
CENTER_NAME    = EARTH
REF_FRAME      = TEME
TIME_SYSTEM    = UTC
MEAN_ELEMENT_THEORY = SGP/SGP4

EPOCH          = 2026-04-02T21:17:07.150848
MEAN_MOTION    = 14.74933356
ECCENTRICITY   = .0013398
INCLINATION    = 54.9823
RA_OF_ASC_NODE = 342.9086
ARG_OF_PERICENTER = 322.0026
MEAN_ANOMALY   = 38.0027

EPHEMERIS_TYPE = 0
CLASSIFICATION_TYPE = U
NORAD_CAT_ID   = 68351
ELEMENT_SET_NO = 999
REV_AT_EPOCH   = 166
BSTAR          = .28072E-3
MEAN_MOTION_DOT = .1693E-4
MEAN_MOTION_DDOT = 0

CCSDS_OMM_VERS = 2.0
CREATION_DATE  = 
ORIGINATOR     = 

OBJECT_NAME    = CENTISPACE-1 OBJECT C
OBJECT_ID      = 2026-060C
CENTER_NAME    = EARTH
REF_FRAME      = TEME
TIME_SYSTEM    = UTC
MEAN_ELEMENT_THEORY = SGP/SGP4

EPOCH          = 2026-04-02T16:22:24.904416
MEAN_MOTION    = 14.75107021
ECCENTRICITY   = .00127235
INCLINATION    = 54.9842
RA_OF_ASC_NODE = 343.7306
ARG_OF_PERICENTER = 328.1654
MEAN_ANOMALY   = 31.8575

EPHEMERIS_TYPE = 0
CLASSIFICATION_TYPE = U
NORAD_CAT_ID   = 68352
ELEMENT_SET_NO = 999
REV_AT_EPOCH   = 163
BSTAR          = .38979699E-4
MEAN_MOTION_DOT = .55E-6
MEAN_MOTION_DDOT = 0

CCSDS_OMM_VERS = 2.0
CREATION_DATE  = 
ORIGINATOR     = 

OBJECT_NAME    = CENTISPACE-1 OBJECT D
OBJECT_ID      = 2026-060D
CENTER_NAME    = EARTH
REF_FRAME      = TEME
TIME_SYSTEM    = UTC
MEAN_ELEMENT_THEORY = SGP/SGP4

EPOCH          = 2026-03-31T12:19:36.304032
MEAN_MOTION    = 14.75128916
ECCENTRICITY   = .00132122
INCLINATION    = 54.9893
RA_OF_ASC_NODE = 352.5746
ARG_OF_PERICENTER = 325.1986
MEAN_ANOMALY   = 34.8148

EPHEMERIS_TYPE = 0
CLASSIFICATION_TYPE = U
NORAD_CAT_ID   = 68353
ELEMENT_SET_NO = 999
REV_AT_EPOCH   = 131
BSTAR          = .43489466E-4
MEAN_MOTION_DOT = .86E-6
MEAN_MOTION_DDOT = 0

CCSDS_OMM_VERS = 2.0
CREATION_DATE  = 
ORIGINATOR     = 

OBJECT_NAME    = CENTISPACE-1 OBJECT E
OBJECT_ID      = 2026-060E
CENTER_NAME    = EARTH
REF_FRAME      = TEME
TIME_SYSTEM    = UTC
MEAN_ELEMENT_THEORY = SGP/SGP4

EPOCH          = 2026-04-02T17:58:54.741216
MEAN_MOTION    = 14.75208725
ECCENTRICITY   = .001321
INCLINATION    = 54.9766
RA_OF_ASC_NODE = 343.4508
ARG_OF_PERICENTER = 326.5301
MEAN_ANOMALY   = 33.4863

EPHEMERIS_TYPE = 0
CLASSIFICATION_TYPE = U
NORAD_CAT_ID   = 68354
ELEMENT_SET_NO = 999
REV_AT_EPOCH   = 164
BSTAR          = .3877E-4
MEAN_MOTION_DOT = .54E-6
MEAN_MOTION_DDOT = 0

CCSDS_OMM_VERS = 2.0
CREATION_DATE  = 
ORIGINATOR     = 

OBJECT_NAME    = CENTISPACE-1 OBJECT F
OBJECT_ID      = 2026-060F
CENTER_NAME    = EARTH
REF_FRAME      = TEME
TIME_SYSTEM    = UTC
MEAN_ELEMENT_THEORY = SGP/SGP4

EPOCH          = 2026-04-01T12:42:18.852768
MEAN_MOTION    = 14.75237979
ECCENTRICITY   = .00139241
INCLINATION    = 54.9764
RA_OF_ASC_NODE = 348.4206
ARG_OF_PERICENTER = 323.7943
MEAN_ANOMALY   = 36.2113

EPHEMERIS_TYPE = 0
CLASSIFICATION_TYPE = U
NORAD_CAT_ID   = 68355
ELEMENT_SET_NO = 999
REV_AT_EPOCH   = 146
BSTAR          = .38992472E-4
MEAN_MOTION_DOT = .56E-6
MEAN_MOTION_DDOT = 0

CCSDS_OMM_VERS = 2.0
CREATION_DATE  = 
ORIGINATOR     = 

OBJECT_NAME    = CENTISPACE-1 OBJECT G
OBJECT_ID      = 2026-060G
CENTER_NAME    = EARTH
REF_FRAME      = TEME
TIME_SYSTEM    = UTC
MEAN_ELEMENT_THEORY = SGP/SGP4

EPOCH          = 2026-04-02T00:04:31.532736
MEAN_MOTION    = 14.75310904
ECCENTRICITY   = .00142424
INCLINATION    = 54.9880
RA_OF_ASC_NODE = 346.4927
ARG_OF_PERICENTER = 325.6905
MEAN_ANOMALY   = 34.3173

EPHEMERIS_TYPE = 0
CLASSIFICATION_TYPE = U
NORAD_CAT_ID   = 68356
ELEMENT_SET_NO = 999
REV_AT_EPOCH   = 153
BSTAR          = .38325405E-4
MEAN_MOTION_DOT = .51E-6
MEAN_MOTION_DDOT = 0

CCSDS_OMM_VERS = 2.0
CREATION_DATE  = 
ORIGINATOR     = 

OBJECT_NAME    = CENTISPACE-1 OBJECT H
OBJECT_ID      = 2026-060H
CENTER_NAME    = EARTH
REF_FRAME      = TEME
TIME_SYSTEM    = UTC
MEAN_ELEMENT_THEORY = SGP/SGP4

EPOCH          = 2026-03-31T12:17:09.150144
MEAN_MOTION    = 14.75426695
ECCENTRICITY   = .0014896
INCLINATION    = 54.9825
RA_OF_ASC_NODE = 352.5691
ARG_OF_PERICENTER = 321.7973
MEAN_ANOMALY   = 38.1970

EPHEMERIS_TYPE = 0
CLASSIFICATION_TYPE = U
NORAD_CAT_ID   = 68357
ELEMENT_SET_NO = 999
REV_AT_EPOCH   = 131
BSTAR          = .33642377E-3
MEAN_MOTION_DOT = .2097E-4
MEAN_MOTION_DDOT = 0

CCSDS_OMM_VERS = 2.0
CREATION_DATE  = 
ORIGINATOR     = 

OBJECT_NAME    = CENTISPACE-1 OBJECT J
OBJECT_ID      = 2026-060J
CENTER_NAME    = EARTH
REF_FRAME      = TEME
TIME_SYSTEM    = UTC
MEAN_ELEMENT_THEORY = SGP/SGP4

EPOCH          = 2026-03-31T22:02:32.676000
MEAN_MOTION    = 14.75410591
ECCENTRICITY   = .00147259
INCLINATION    = 54.9876
RA_OF_ASC_NODE = 350.9118
ARG_OF_PERICENTER = 324.9275
MEAN_ANOMALY   = 35.0754

EPHEMERIS_TYPE = 0
CLASSIFICATION_TYPE = U
NORAD_CAT_ID   = 68358
ELEMENT_SET_NO = 999
REV_AT_EPOCH   = 137
BSTAR          = .44082868E-4
MEAN_MOTION_DOT = .91E-6
MEAN_MOTION_DDOT = 0

CCSDS_OMM_VERS = 2.0
CREATION_DATE  = 
ORIGINATOR     = 

OBJECT_NAME    = CENTISPACE-1 OBJECT K
OBJECT_ID      = 2026-060K
CENTER_NAME    = EARTH
REF_FRAME      = TEME
TIME_SYSTEM    = UTC
MEAN_ELEMENT_THEORY = SGP/SGP4

EPOCH          = 2026-04-01T17:32:29.893920
MEAN_MOTION    = 14.75493204
ECCENTRICITY   = .00151156
INCLINATION    = 54.9775
RA_OF_ASC_NODE = 347.5897
ARG_OF_PERICENTER = 326.6312
MEAN_ANOMALY   = 33.3734

EPHEMERIS_TYPE = 0
CLASSIFICATION_TYPE = U
NORAD_CAT_ID   = 68359
ELEMENT_SET_NO = 999
REV_AT_EPOCH   = 149
BSTAR          = .37852544E-4
MEAN_MOTION_DOT = .49E-6
MEAN_MOTION_DDOT = 0

CCSDS_OMM_VERS = 2.0
CREATION_DATE  = 
ORIGINATOR     = 

OBJECT_NAME    = RASSVET-3 1
OBJECT_ID      = 2026-061A
CENTER_NAME    = EARTH
REF_FRAME      = TEME
TIME_SYSTEM    = UTC
MEAN_ELEMENT_THEORY = SGP/SGP4

EPOCH          = 2026-04-02T19:08:54.668544
MEAN_MOTION    = 15.89404754
ECCENTRICITY   = .0025817
INCLINATION    = 82.2959
RA_OF_ASC_NODE = 97.2868
ARG_OF_PERICENTER = 37.6456
MEAN_ANOMALY   = 322.6616

EPHEMERIS_TYPE = 0
CLASSIFICATION_TYPE = U
NORAD_CAT_ID   = 68360
ELEMENT_SET_NO = 999
REV_AT_EPOCH   = 160
BSTAR          = .18684E-3
MEAN_MOTION_DOT = .55858E-3
MEAN_MOTION_DDOT = -.49433E-7

